{"fetched_at":"2026-07-09T18:16:42.472Z","source":"https://celestrak.org/NORAD/elements/gp.php?GROUP=oneweb&FORMAT=JSON","constellation":"oneweb","records":[{"OBJECT_NAME":"ONEWEB-0101","OBJECT_ID":"2021-025H","EPOCH":"2026-07-08T20:30:00.098784","CLASSIFICATION_TYPE":"U","MEAN_MOTION":13.13471111,"ECCENTRICITY":0.00020383,"INCLINATION":87.8964,"RA_OF_ASC_NODE":315.914,"ARG_OF_PERICENTER":103.7548,"MEAN_ANOMALY":256.3808,"EPHEMERIS_TYPE":0,"NORAD_CAT_ID":48049,"ELEMENT_SET_NO":999,"REV_AT_EPOCH":25634,"BSTAR":-0.00016267905,"MEAN_MOTION_DOT":-4.7e-7,"MEAN_MOTION_DDOT":0},{"OBJECT_NAME":"ONEWEB-0113","OBJECT_ID":"2021-025J","EPOCH":"2026-07-08T20:55:02.308800","CLASSIFICATION_TYPE":"U","MEAN_MOTION":13.1389193,"ECCENTRICITY":0.00018479,"INCLINATION":87.897,"RA_OF_ASC_NODE":315.8186,"ARG_OF_PERICENTER":98.6633,"MEAN_ANOMALY":261.4706,"EPHEMERIS_TYPE":0,"NORAD_CAT_ID":48050,"ELEMENT_SET_NO":999,"REV_AT_EPOCH":25645,"BSTAR":0.00065145212,"MEAN_MOTION_DOT":0.00000252,"MEAN_MOTION_DDOT":0},{"OBJECT_NAME":"ONEWEB-0112","OBJECT_ID":"2021-025K","EPOCH":"2026-07-08T21:30:56.378304","CLASSIFICATION_TYPE":"U","MEAN_MOTION":13.13468588,"ECCENTRICITY":0.00021174,"INCLINATION":87.8983,"RA_OF_ASC_NODE":315.8896,"ARG_OF_PERICENTER":105.1287,"MEAN_ANOMALY":255.0076,"EPHEMERIS_TYPE":0,"NORAD_CAT_ID":48051,"ELEMENT_SET_NO":999,"REV_AT_EPOCH":25644,"BSTAR":0.000080528411,"MEAN_MOTION_DOT":4.2e-7,"MEAN_MOTION_DDOT":0},{"OBJECT_NAME":"ONEWEB-0156","OBJECT_ID":"2021-025L","EPOCH":"2026-07-08T21:43:07.749984","CLASSIFICATION_TYPE":"U","MEAN_MOTION":13.13471502,"ECCENTRICITY":0.00020087,"INCLINATION":87.8985,"RA_OF_ASC_NODE":315.8972,"ARG_OF_PERICENTER":98.6939,"MEAN_ANOMALY":261.4417,"EPHEMERIS_TYPE":0,"NORAD_CAT_ID":48052,"ELEMENT_SET_NO":999,"REV_AT_EPOCH":25642,"BSTAR":-0.00064082532,"MEAN_MOTION_DOT":-0.00000221,"MEAN_MOTION_DDOT":0},{"OBJECT_NAME":"ONEWEB-0161","OBJECT_ID":"2021-025M","EPOCH":"2026-07-08T21:06:33.544224","CLASSIFICATION_TYPE":"U","MEAN_MOTION":13.1346909,"ECCENTRICITY":0.00020745,"INCLINATION":87.8981,"RA_OF_ASC_NODE":315.9036,"ARG_OF_PERICENTER":96.7702,"MEAN_ANOMALY":263.3664,"EPHEMERIS_TYPE":0,"NORAD_CAT_ID":48053,"ELEMENT_SET_NO":999,"REV_AT_EPOCH":25635,"BSTAR":0.0010112859,"MEAN_MOTION_DOT":0.00000382,"MEAN_MOTION_DDOT":0},{"OBJECT_NAME":"ONEWEB-0158","OBJECT_ID":"2021-025N","EPOCH":"2026-07-08T20:08:02.649984","CLASSIFICATION_TYPE":"U","MEAN_MOTION":13.13469127,"ECCENTRICITY":0.00017646,"INCLINATION":87.898,"RA_OF_ASC_NODE":315.9095,"ARG_OF_PERICENTER":105.6859,"MEAN_ANOMALY":254.4465,"EPHEMERIS_TYPE":0,"NORAD_CAT_ID":48054,"ELEMENT_SET_NO":999,"REV_AT_EPOCH":25647,"BSTAR":-0.0010200479,"MEAN_MOTION_DOT":-0.0000036,"MEAN_MOTION_DDOT":0},{"OBJECT_NAME":"ONEWEB-0157","OBJECT_ID":"2021-025P","EPOCH":"2026-07-08T20:44:37.660992","CLASSIFICATION_TYPE":"U","MEAN_MOTION":13.13471497,"ECCENTRICITY":0.00023227,"INCLINATION":87.8971,"RA_OF_ASC_NODE":315.91,"ARG_OF_PERICENTER":101.3902,"MEAN_ANOMALY":258.7488,"EPHEMERIS_TYPE":0,"NORAD_CAT_ID":48055,"ELEMENT_SET_NO":999,"REV_AT_EPOCH":25641,"BSTAR":0.00056531417,"MEAN_MOTION_DOT":0.00000219,"MEAN_MOTION_DDOT":0},{"OBJECT_NAME":"ONEWEB-0162","OBJECT_ID":"2021-025Q","EPOCH":"2026-07-08T20:10:18.087168","CLASSIFICATION_TYPE":"U","MEAN_MOTION":13.13469652,"ECCENTRICITY":0.00019154,"INCLINATION":87.8979,"RA_OF_ASC_NODE":315.9141,"ARG_OF_PERICENTER":95.1635,"MEAN_ANOMALY":264.9713,"EPHEMERIS_TYPE":0,"NORAD_CAT_ID":48056,"ELEMENT_SET_NO":999,"REV_AT_EPOCH":25638,"BSTAR":-0.00099838624,"MEAN_MOTION_DOT":-0.00000352,"MEAN_MOTION_DDOT":0},{"OBJECT_NAME":"ONEWEB-0155","OBJECT_ID":"2021-025R","EPOCH":"2026-07-08T20:20:16.848672","CLASSIFICATION_TYPE":"U","MEAN_MOTION":13.13473878,"ECCENTRICITY":0.00019858,"INCLINATION":87.8969,"RA_OF_ASC_NODE":315.9116,"ARG_OF_PERICENTER":96.5844,"MEAN_ANOMALY":263.5512,"EPHEMERIS_TYPE":0,"NORAD_CAT_ID":48057,"ELEMENT_SET_NO":999,"REV_AT_EPOCH":25652,"BSTAR":-0.00069824989,"MEAN_MOTION_DOT":-0.00000242,"MEAN_MOTION_DDOT":0},{"OBJECT_NAME":"ONEWEB-0149","OBJECT_ID":"2021-025S","EPOCH":"2026-07-08T20:51:56.692224","CLASSIFICATION_TYPE":"U","MEAN_MOTION":13.13471027,"ECCENTRICITY":0.0001877,"INCLINATION":87.8986,"RA_OF_ASC_NODE":315.9082,"ARG_OF_PERICENTER":84.3515,"MEAN_ANOMALY":275.7828,"EPHEMERIS_TYPE":0,"NORAD_CAT_ID":48058,"ELEMENT_SET_NO":999,"REV_AT_EPOCH":25633,"BSTAR":0.00042717805,"MEAN_MOTION_DOT":0.00000169,"MEAN_MOTION_DDOT":0},{"OBJECT_NAME":"ONEWEB-0148","OBJECT_ID":"2021-025T","EPOCH":"2026-07-08T21:47:59.947872","CLASSIFICATION_TYPE":"U","MEAN_MOTION":13.13468841,"ECCENTRICITY":0.00020907,"INCLINATION":87.8973,"RA_OF_ASC_NODE":315.907,"ARG_OF_PERICENTER":82.6929,"MEAN_ANOMALY":277.4438,"EPHEMERIS_TYPE":0,"NORAD_CAT_ID":48059,"ELEMENT_SET_NO":999,"REV_AT_EPOCH":25646,"BSTAR":-0.00057741024,"MEAN_MOTION_DOT":-0.00000198,"MEAN_MOTION_DDOT":0},{"OBJECT_NAME":"ONEWEB-0160","OBJECT_ID":"2021-025U","EPOCH":"2026-07-08T20:22:40.898208","CLASSIFICATION_TYPE":"U","MEAN_MOTION":13.13417658,"ECCENTRICITY":0.00013719,"INCLINATION":87.8967,"RA_OF_ASC_NODE":315.9157,"ARG_OF_PERICENTER":124.239,"MEAN_ANOMALY":235.8869,"EPHEMERIS_TYPE":0,"NORAD_CAT_ID":48060,"ELEMENT_SET_NO":999,"REV_AT_EPOCH":25640,"BSTAR":0.027394172,"MEAN_MOTION_DOT":0.0001002,"MEAN_MOTION_DDOT":0},{"OBJECT_NAME":"ONEWEB-0163","OBJECT_ID":"2021-025V","EPOCH":"2026-07-08T21:50:26.113344","CLASSIFICATION_TYPE":"U","MEAN_MOTION":13.13468574,"ECCENTRICITY":0.000222,"INCLINATION":87.8985,"RA_OF_ASC_NODE":315.8986,"ARG_OF_PERICENTER":99.4969,"MEAN_ANOMALY":260.6411,"EPHEMERIS_TYPE":0,"NORAD_CAT_ID":48061,"ELEMENT_SET_NO":999,"REV_AT_EPOCH":25653,"BSTAR":-0.00081310922,"MEAN_MOTION_DOT":-0.00000284,"MEAN_MOTION_DDOT":0},{"OBJECT_NAME":"ONEWEB-0159","OBJECT_ID":"2021-025W","EPOCH":"2026-07-08T21:38:14.987040","CLASSIFICATION_TYPE":"U","MEAN_MOTION":13.13468961,"ECCENTRICITY":0.00021479,"INCLINATION":87.8985,"RA_OF_ASC_NODE":315.8941,"ARG_OF_PERICENTER":99.8569,"MEAN_ANOMALY":260.2803,"EPHEMERIS_TYPE":0,"NORAD_CAT_ID":48062,"ELEMENT_SET_NO":999,"REV_AT_EPOCH":25645,"BSTAR":-0.00022241131,"MEAN_MOTION_DOT":-6.8e-7,"MEAN_MOTION_DDOT":0},{"OBJECT_NAME":"ONEWEB-0164","OBJECT_ID":"2021-025X","EPOCH":"2026-07-08T21:11:26.215584","CLASSIFICATION_TYPE":"U","MEAN_MOTION":13.13469416,"ECCENTRICITY":0.0001863,"INCLINATION":87.8981,"RA_OF_ASC_NODE":315.9043,"ARG_OF_PERICENTER":101.1481,"MEAN_ANOMALY":258.9858,"EPHEMERIS_TYPE":0,"NORAD_CAT_ID":48063,"ELEMENT_SET_NO":999,"REV_AT_EPOCH":25643,"BSTAR":0.00087836422,"MEAN_MOTION_DOT":0.00000334,"MEAN_MOTION_DDOT":0},{"OBJECT_NAME":"ONEWEB-0167","OBJECT_ID":"2021-025Y","EPOCH":"2026-07-08T21:51:39.935232","CLASSIFICATION_TYPE":"U","MEAN_MOTION":13.13469253,"ECCENTRICITY":0.00024112,"INCLINATION":87.8973,"RA_OF_ASC_NODE":315.9063,"ARG_OF_PERICENTER":111.9004,"MEAN_ANOMALY":248.2382,"EPHEMERIS_TYPE":0,"NORAD_CAT_ID":48064,"ELEMENT_SET_NO":999,"REV_AT_EPOCH":25642,"BSTAR":-0.0007442605,"MEAN_MOTION_DOT":-0.00000259,"MEAN_MOTION_DDOT":0},{"OBJECT_NAME":"ONEWEB-0166","OBJECT_ID":"2021-025Z","EPOCH":"2026-07-08T18:45:10.774080","CLASSIFICATION_TYPE":"U","MEAN_MOTION":13.13470283,"ECCENTRICITY":0.0001958,"INCLINATION":87.8989,"RA_OF_ASC_NODE":315.9059,"ARG_OF_PERICENTER":97.6784,"MEAN_ANOMALY":262.4568,"EPHEMERIS_TYPE":0,"NORAD_CAT_ID":48065,"ELEMENT_SET_NO":999,"REV_AT_EPOCH":25648,"BSTAR":0.000008293305,"MEAN_MOTION_DOT":1.6e-7,"MEAN_MOTION_DDOT":0},{"OBJECT_NAME":"ONEWEB-0151","OBJECT_ID":"2021-025AA","EPOCH":"2026-07-08T18:47:36.340800","CLASSIFICATION_TYPE":"U","MEAN_MOTION":13.1347045,"ECCENTRICITY":0.0001948,"INCLINATION":87.8979,"RA_OF_ASC_NODE":315.9206,"ARG_OF_PERICENTER":103.4108,"MEAN_ANOMALY":256.7238,"EPHEMERIS_TYPE":0,"NORAD_CAT_ID":48066,"ELEMENT_SET_NO":999,"REV_AT_EPOCH":25642,"BSTAR":0.00000830259,"MEAN_MOTION_DOT":1.6e-7,"MEAN_MOTION_DDOT":0},{"OBJECT_NAME":"ONEWEB-0170","OBJECT_ID":"2021-025AB","EPOCH":"2026-07-08T20:49:29.213472","CLASSIFICATION_TYPE":"U","MEAN_MOTION":13.1346974,"ECCENTRICITY":0.00016553,"INCLINATION":87.8975,"RA_OF_ASC_NODE":315.9062,"ARG_OF_PERICENTER":116.1982,"MEAN_ANOMALY":243.9318,"EPHEMERIS_TYPE":0,"NORAD_CAT_ID":48067,"ELEMENT_SET_NO":999,"REV_AT_EPOCH":25639,"BSTAR":0.00073582351,"MEAN_MOTION_DOT":0.00000281,"MEAN_MOTION_DDOT":0},{"OBJECT_NAME":"ONEWEB-0168","OBJECT_ID":"2021-025AC","EPOCH":"2026-07-08T20:27:32.977728","CLASSIFICATION_TYPE":"U","MEAN_MOTION":13.13469495,"ECCENTRICITY":0.00019897,"INCLINATION":87.8985,"RA_OF_ASC_NODE":315.9093,"ARG_OF_PERICENTER":100.927,"MEAN_ANOMALY":259.2083,"EPHEMERIS_TYPE":0,"NORAD_CAT_ID":48068,"ELEMENT_SET_NO":999,"REV_AT_EPOCH":25640,"BSTAR":-0.00036913338,"MEAN_MOTION_DOT":-0.00000122,"MEAN_MOTION_DDOT":0},{"OBJECT_NAME":"ONEWEB-0173","OBJECT_ID":"2021-025AD","EPOCH":"2026-07-08T20:15:21.834144","CLASSIFICATION_TYPE":"U","MEAN_MOTION":13.13469636,"ECCENTRICITY":0.00022912,"INCLINATION":87.8979,"RA_OF_ASC_NODE":315.9115,"ARG_OF_PERICENTER":103.5879,"MEAN_ANOMALY":256.5506,"EPHEMERIS_TYPE":0,"NORAD_CAT_ID":48069,"ELEMENT_SET_NO":999,"REV_AT_EPOCH":25664,"BSTAR":-0.00087323336,"MEAN_MOTION_DOT":-0.00000306,"MEAN_MOTION_DDOT":0},{"OBJECT_NAME":"ONEWEB-0171","OBJECT_ID":"2021-025AE","EPOCH":"2026-07-08T21:08:59.838432","CLASSIFICATION_TYPE":"U","MEAN_MOTION":13.13468869,"ECCENTRICITY":0.00018732,"INCLINATION":87.8982,"RA_OF_ASC_NODE":315.9106,"ARG_OF_PERICENTER":103.8785,"MEAN_ANOMALY":256.2552,"EPHEMERIS_TYPE":0,"NORAD_CAT_ID":48070,"ELEMENT_SET_NO":999,"REV_AT_EPOCH":25646,"BSTAR":0.00087521036,"MEAN_MOTION_DOT":0.00000332,"MEAN_MOTION_DDOT":0},{"OBJECT_NAME":"ONEWEB-0172","OBJECT_ID":"2021-025AF","EPOCH":"2026-07-08T20:39:44.703648","CLASSIFICATION_TYPE":"U","MEAN_MOTION":13.13470722,"ECCENTRICITY":0.00020559,"INCLINATION":87.8982,"RA_OF_ASC_NODE":315.9079,"ARG_OF_PERICENTER":104.4431,"MEAN_ANOMALY":255.6927,"EPHEMERIS_TYPE":0,"NORAD_CAT_ID":48071,"ELEMENT_SET_NO":999,"REV_AT_EPOCH":25735,"BSTAR":0.000061024705,"MEAN_MOTION_DOT":3.5e-7,"MEAN_MOTION_DDOT":0}]}
